{"type": "FeatureCollection", "features": [ {"type": "Feature", "properties": {"norad_id": 28659, "name": "DIRECTV 8", "group": "intelsat", "lat": -0.04125425958759715, "lon": -111.67085438898623, "alt_km": 35770.214020284744, "timestamp": "2025-12-04T19:33:59.298624+00:00", "meta": {"OBJECT_NAME": "DIRECTV 8", "OBJECT_ID": "2005-019A", "EPOCH": "2025-12-04T06:18:43.784928", "MEAN_MOTION": 1.00277091, "ECCENTRICITY": 0.00033893, "INCLINATION": 0.017, "RA_OF_ASC_NODE": 320.346, "ARG_OF_PERICENTER": 286.4136, "MEAN_ANOMALY": 162.2188, "EPHEMERIS_TYPE": 0, "CLASSIFICATION_TYPE": "U", "NORAD_CAT_ID": 28659, "ELEMENT_SET_NO": 999, "REV_AT_EPOCH": 7511, "BSTAR": 0, "MEAN_MOTION_DOT": 1.6e-07, "MEAN_MOTION_DDOT": 0}, "tle": {"line1": "1 28659U 05019A   25338.26300677  .00000016  00000+0  00000+0 0  9992", "line2": "2 28659   0.0170 320.3460 0003389 286.4136 162.2188  1.00277091 75110"}}, "geometry": {"type": "Point", "coordinates": [-111.67085438898623, -0.04125425958759715]}}, {"type": "Feature", "properties": {"norad_id": 28702, "name": "GALAXY 28 (G-28)", "group": "intelsat", "lat": -0.8540429248802867, "lon": -81.33527969602771, "alt_km": 35776.07623547385, "timestamp": "2025-12-04T19:33:59.298635+00:00", "meta": {"OBJECT_NAME": "GALAXY 28 (G-28)", "OBJECT_ID": "2005-022A", "EPOCH": "2025-12-04T06:27:20.460384", "MEAN_MOTION": 1.00272167, "ECCENTRICITY": 0.00026418, "INCLINATION": 2.797, "RA_OF_ASC_NODE": 81.3802, "ARG_OF_PERICENTER": 171.0874, "MEAN_ANOMALY": 189.0166, "EPHEMERIS_TYPE": 0, "CLASSIFICATION_TYPE": "U", "NORAD_CAT_ID": 28702, "ELEMENT_SET_NO": 999, "REV_AT_EPOCH": 5002, "BSTAR": 0, "MEAN_MOTION_DOT": -1.73e-06, "MEAN_MOTION_DDOT": 0}, "tle": {"line1": "1 28702U 05022A   25338.26898681 -.00000173  00000+0  00000+0 0  9997", "line2": "2 28702   2.7970  81.3802 0002641 171.0874 189.0166  1.00272167 50023"}}, "geometry": {"type": "Point", "coordinates": [-81.33527969602771, -0.8540429248802867]}}, {"type": "Feature", "properties": {"norad_id": 29236, "name": "GALAXY 16 (G-16)", "group": "intelsat", "lat": -0.0058819527362753265, "lon": -91.64158058651371, "alt_km": 35774.04345193644, "timestamp": "2025-12-04T19:33:59.298646+00:00", "meta": {"OBJECT_NAME": "GALAXY 16 (G-16)", "OBJECT_ID": "2006-023A", "EPOCH": "2025-12-04T06:24:28.234944", "MEAN_MOTION": 1.00271134, "ECCENTRICITY": 0.00029567, "INCLINATION": 0.0258, "RA_OF_ASC_NODE": 212.498, "ARG_OF_PERICENTER": 43.457, "MEAN_ANOMALY": 174.4974, "EPHEMERIS_TYPE": 0, "CLASSIFICATION_TYPE": "U", "NORAD_CAT_ID": 29236, "ELEMENT_SET_NO": 999, "REV_AT_EPOCH": 7101, "BSTAR": 0, "MEAN_MOTION_DOT": -1.11e-06, "MEAN_MOTION_DDOT": 0}, "tle": {"line1": "1 29236U 06023A   25338.26699346 -.00000111  00000+0  00000+0 0  9991", "line2": "2 29236   0.0258 212.4980 0002956  43.4570 174.4974  1.00271134 71014"}}, "geometry": {"type": "Point", "coordinates": [-91.64158058651371, -0.0058819527362753265]}}, {"type": "Feature", "properties": {"norad_id": 29494, "name": "DIRECTV 9S", "group": "intelsat", "lat": -0.12044216625415669, "lon": -93.83670851639542, "alt_km": 35773.09031599174, "timestamp": "2025-12-04T19:33:59.298657+00:00", "meta": {"OBJECT_NAME": "DIRECTV 9S", "OBJECT_ID": "2006-043A", "EPOCH": "2025-12-04T06:23:50.795232", "MEAN_MOTION": 1.00270534, "ECCENTRICITY": 0.00032372, "INCLINATION": 1.9168, "RA_OF_ASC_NODE": 83.3004, "ARG_OF_PERICENTER": 169.838, "MEAN_ANOMALY": 174.9605, "EPHEMERIS_TYPE": 0, "CLASSIFICATION_TYPE": "U", "NORAD_CAT_ID": 29494, "ELEMENT_SET_NO": 999, "REV_AT_EPOCH": 4942, "BSTAR": 0, "MEAN_MOTION_DOT": -9.8e-07, "MEAN_MOTION_DDOT": 0}, "tle": {"line1": "1 29494U 06043A   25338.26656013 -.00000098  00000+0  00000+0 0  9997", "line2": "2 29494   1.9168  83.3004 0003237 169.8380 174.9605  1.00270534 49426"}}, "geometry": {"type": "Point", "coordinates": [-93.83670851639542, -0.12044216625415669]}}, {"type": "Feature", "properties": {"norad_id": 31307, "name": "GALAXY 17 (G-17)", "group": "intelsat", "lat": -0.8692049503372036, "lon": -77.60583352032081, "alt_km": 35767.39754944004, "timestamp": "2025-12-04T19:33:59.298667+00:00", "meta": {"OBJECT_NAME": "GALAXY 17 (G-17)", "OBJECT_ID": "2007-016B", "EPOCH": "2025-12-04T06:28:27.852384", "MEAN_MOTION": 1.00270323, "ECCENTRICITY": 0.00061224, "INCLINATION": 2.4771, "RA_OF_ASC_NODE": 82.3832, "ARG_OF_PERICENTER": 157.7627, "MEAN_ANOMALY": 205.3175, "EPHEMERIS_TYPE": 0, "CLASSIFICATION_TYPE": "U", "NORAD_CAT_ID": 31307, "ELEMENT_SET_NO": 999, "REV_AT_EPOCH": 6785, "BSTAR": 0, "MEAN_MOTION_DOT": -1.92e-06, "MEAN_MOTION_DDOT": 0}, "tle": {"line1": "1 31307U 07016B   25338.26976681 -.00000192  00000+0  00000+0 0  9995", "line2": "2 31307   2.4771  82.3832 0006122 157.7627 205.3175  1.00270323 67856"}}, "geometry": {"type": "Point", "coordinates": [-77.60583352032081, -0.8692049503372036]}}, {"type": "Feature", "properties": {"norad_id": 31862, "name": "DIRECTV 10", "group": "intelsat", "lat": 0.00305147852577288, "lon": -95.44613203430742, "alt_km": 35787.20517098999, "timestamp": "2025-12-04T19:33:59.298678+00:00", "meta": {"OBJECT_NAME": "DIRECTV 10", "OBJECT_ID": "2007-032A", "EPOCH": "2025-12-04T06:23:20.842944", "MEAN_MOTION": 1.0026682, "ECCENTRICITY": 6.89e-06, "INCLINATION": 0.0012, "RA_OF_ASC_NODE": 68.1966, "ARG_OF_PERICENTER": 212.976, "MEAN_ANOMALY": 145.2097, "EPHEMERIS_TYPE": 0, "CLASSIFICATION_TYPE": "U", "NORAD_CAT_ID": 31862, "ELEMENT_SET_NO": 999, "REV_AT_EPOCH": 4363, "BSTAR": 0, "MEAN_MOTION_DOT": -8.7e-07, "MEAN_MOTION_DDOT": 0}, "tle": {"line1": "1 31862U 07032A   25338.26621346 -.00000087  00000+0  00000+0 0  9997", "line2": "2 31862   0.0012  68.1966 0000068 212.9760 145.2097  1.00266820 43631"}}, "geometry": {"type": "Point", "coordinates": [-95.44613203430742, 0.00305147852577288]}}, {"type": "Feature", "properties": {"norad_id": 32253, "name": "INTELSAT 11 (IS-11)", "group": "intelsat", "lat": -0.39382339208841166, "lon": -92.01130550983373, "alt_km": 36097.021466295104, "timestamp": "2025-12-04T19:33:59.298688+00:00", "meta": {"OBJECT_NAME": "INTELSAT 11 (IS-11)", "OBJECT_ID": "2007-044B", "EPOCH": "2025-12-04T06:24:58.187232", "MEAN_MOTION": 0.9904715, "ECCENTRICITY": 0.0009299, "INCLINATION": 3.0566, "RA_OF_ASC_NODE": 81.0713, "ARG_OF_PERICENTER": 161.6588, "MEAN_ANOMALY": 189.8584, "EPHEMERIS_TYPE": 0, "CLASSIFICATION_TYPE": "U", "NORAD_CAT_ID": 32253, "ELEMENT_SET_NO": 999, "REV_AT_EPOCH": 6651, "BSTAR": 0, "MEAN_MOTION_DOT": 2.1e-07, "MEAN_MOTION_DDOT": 0}, "tle": {"line1": "1 32253U 07044B   25338.26734013  .00000021  00000+0  00000+0 0  9998", "line2": "2 32253   3.0566  81.0713 0009299 161.6588 189.8584  0.99047150 66517"}}, "geometry": {"type": "Point", "coordinates": [-92.01130550983373, -0.39382339208841166]}}, {"type": "Feature", "properties": {"norad_id": 32388, "name": "HORIZONS-2", "group": "intelsat", "lat": -1.0833412372795106, "lon": -66.40642081384998, "alt_km": 35767.64112811263, "timestamp": "2025-12-04T19:33:59.298699+00:00", "meta": {"OBJECT_NAME": "HORIZONS-2", "OBJECT_ID": "2007-063B", "EPOCH": "2025-12-04T06:31:35.054400", "MEAN_MOTION": 1.00271777, "ECCENTRICITY": 0.00050276, "INCLINATION": 2.098, "RA_OF_ASC_NODE": 83.0544, "ARG_OF_PERICENTER": 181.7244, "MEAN_ANOMALY": 192.6828, "EPHEMERIS_TYPE": 0, "CLASSIFICATION_TYPE": "U", "NORAD_CAT_ID": 32388, "ELEMENT_SET_NO": 999, "REV_AT_EPOCH": 6586, "BSTAR": 0, "MEAN_MOTION_DOT": -2.39e-06, "MEAN_MOTION_DDOT": 0}, "tle": {"line1": "1 32388U 07063B   25338.27193350 -.00000239  00000+0  00000+0 0  9994", "line2": "2 32388   2.0980  83.0544 0005027 181.7244 192.6828  1.00271777 65863"}}, "geometry": {"type": "Point", "coordinates": [-66.40642081384998, -1.0833412372795106]}}, {"type": "Feature", "properties": {"norad_id": 32729, "name": "DIRECTV 11", "group": "intelsat", "lat": 0.010483166356759692, "lon": -91.83665914058359, "alt_km": 35786.104130167114, "timestamp": "2025-12-04T19:33:59.298709+00:00", "meta": {"OBJECT_NAME": "DIRECTV 11", "OBJECT_ID": "2008-013A", "EPOCH": "2025-12-04T06:24:20.746656", "MEAN_MOTION": 1.00269601, "ECCENTRICITY": 2.238e-05, "INCLINATION": 0.0003, "RA_OF_ASC_NODE": 97.7037, "ARG_OF_PERICENTER": 119.9474, "MEAN_ANOMALY": 212.5833, "EPHEMERIS_TYPE": 0, "CLASSIFICATION_TYPE": "U", "NORAD_CAT_ID": 32729, "ELEMENT_SET_NO": 999, "REV_AT_EPOCH": 4363, "BSTAR": 0, "MEAN_MOTION_DOT": -1.1e-06, "MEAN_MOTION_DDOT": 0}, "tle": {"line1": "1 32729U 08013A   25338.26690679 -.00000110  00000+0  00000+0 0  9992", "line2": "2 32729   0.0003  97.7037 0000223 119.9474 212.5833  1.00269601 43638"}}, "geometry": {"type": "Point", "coordinates": [-91.83665914058359, 0.010483166356759692]}}, {"type": "Feature", "properties": {"norad_id": 32951, "name": "GALAXY 18 (G-18)", "group": "intelsat", "lat": -0.038685161792911156, "lon": -115.64216419079114, "alt_km": 35772.81852446942, "timestamp": "2025-12-04T19:33:59.298733+00:00", "meta": {"OBJECT_NAME": "GALAXY 18 (G-18)", "OBJECT_ID": "2008-024A", "EPOCH": "2025-12-04T04:34:52.768128", "MEAN_MOTION": 1.00271412, "ECCENTRICITY": 0.00032353, "INCLINATION": 0.0165, "RA_OF_ASC_NODE": 356.8889, "ARG_OF_PERICENTER": 260.9725, "MEAN_ANOMALY": 121.133, "EPHEMERIS_TYPE": 0, "CLASSIFICATION_TYPE": "U", "NORAD_CAT_ID": 32951, "ELEMENT_SET_NO": 999, "REV_AT_EPOCH": 4389, "BSTAR": 0, "MEAN_MOTION_DOT": 4.1e-07, "MEAN_MOTION_DDOT": 0}, "tle": {"line1": "1 32951U 08024A   25338.19088852  .00000041  00000+0  00000+0 0  9999", "line2": "2 32951   0.0165 356.8889 0003235 260.9725 121.1330  1.00271412 43898"}}, "geometry": {"type": "Point", "coordinates": [-115.64216419079114, -0.038685161792911156]}}]}